{
  "norad_id": 62011,
  "name": "STARLINK-11330 [DTC]",
  "history": [
    {
      "epoch": "2026-05-02T07:25:01.044768Z",
      "apogee_km": 360.71913497638616,
      "perigee_km": 358.88102574086406,
      "latitude_deg": 3.803466581048685e-05,
      "longitude_deg": 165.67914344177282,
      "height_km": 360.4503923793624,
      "semi_major_axis_km": 6737.937080358625,
      "eccentricity": 0.0001364,
      "inclination_deg": 53.1568,
      "raan_deg": 137.1624,
      "arg_perigee_deg": 73.3908,
      "mean_anomaly_deg": 286.726,
      "mean_motion_rev_day": 15.69684375
    },
    {
      "epoch": "2026-05-03T12:26:59.664768Z",
      "apogee_km": 360.4783375309271,
      "perigee_km": 358.5015177903515,
      "latitude_deg": 1.0592841153238323e-05,
      "longitude_deg": 83.03082900583088,
      "height_km": 360.51721010271507,
      "semi_major_axis_km": 6737.626927660639,
      "eccentricity": 0.0001467,
      "inclination_deg": 53.1566,
      "raan_deg": 131.2007,
      "arg_perigee_deg": 96.6497,
      "mean_anomaly_deg": 263.4688,
      "mean_motion_rev_day": 15.69792762
    },
    {
      "epoch": "2026-05-04T11:22:16.020192Z",
      "apogee_km": 360.4926191336981,
      "perigee_km": 358.80736385138516,
      "latitude_deg": 3.0676810723151267e-05,
      "longitude_deg": 93.56165259069745,
      "height_km": 360.68749466708994,
      "semi_major_axis_km": 6737.786991492541,
      "eccentricity": 0.00012506,
      "inclination_deg": 53.1572,
      "raan_deg": 126.491,
      "arg_perigee_deg": 98.4852,
      "mean_anomaly_deg": 261.6308,
      "mean_motion_rev_day": 15.69736824
    }
  ]
}